STARLINK-2144           
1 47734U 21017N   26068.68682847  .00016191  00000+0  55727-3 0  9993
2 47734  53.1608 203.9031 0001306  77.0045 283.1101 15.30217954277864
GLOBAL-34               
1 68098U 26043A   26068.47466435  .00014018  00000+0  45822-3 0  9994
2 68098  42.0215  76.7399 0006884 289.2632  70.7460 15.31488019   538
